KUIPER-00157            
1 65970U 25228Z   26024.50001156 -.00002928  00000+0 -16008-3 0  9998
2 65970  51.8872 175.8990 0003677 208.5513 194.0368 15.10033317  5804
KUIPER-00144            
1 67133U 25301A   26024.00083938  .00048891  00000+0  13460-2 0  9991
2 67133  51.8698 281.2315 0006575 220.3340 139.7159 15.36658422  6865
KUIPER-00164            
1 67134U 25301B   26023.72572409  .00064669  00000+0  17489-2 0  9992
2 67134  51.8695 282.3969 0002868 186.1862 173.9090 15.37102887  7000
KUIPER-00175            
1 67135U 25301C   26024.42766458  .00051851  00000+0  13843-2 0  9999
2 67135  51.8735 278.8521 0002136 159.6526 200.4546 15.37599860  7003
KUIPER-00179            
1 67136U 25301D   26024.43747482  .00055681  00000+0  15068-2 0  9993
2 67136  51.8731 278.9195 0002620 194.5798 165.5113 15.37148896  7117
KUIPER-00181            
1 67137U 25301E   26023.71540247  .00043562  00000+0  14030-2 0  9997
2 67137  51.8681 283.0274 0011236 239.8862 120.1009 15.31714112  6973
KUIPER-00183            
1 67138U 25301F   26024.50001156  .00064273  00000+0  18333-2 0  9999
2 67138  51.8618 279.1800 0011930 243.5384 170.0586 15.35381756  4832
KUIPER-00184            
1 67139U 25301G   26022.98511139  .00032574  00000+0  93322-3 0  9998
2 67139  51.8637 286.3987 0009405 235.4347 124.5752 15.35582651  6987
